{
  "type": "FeatureCollection",
  "features": [
    {
      "type": "Feature",
      "properties": {
        "norad_id": 66564,
        "name": "STARLINK-35358",
        "group": "last-30-days",
        "lat": -42.77476850609537,
        "lon": 59.26266769350278,
        "alt_km": 386.0968452194347,
        "timestamp": "2025-12-06T18:50:08.956005+00:00",
        "meta_object_name": "STARLINK-35358",
        "meta_object_id": "2025-268H",
        "meta_epoch": "2025-12-06T06:00:02.000160",
        "meta_mean_motion": 15.63561071,
        "meta_eccentricity": 0.00015144,
        "meta_inclination": 42.9994,
        "meta_ra_of_asc_node": 159.2862,
        "meta_arg_of_pericenter": 271.7011,
        "meta_mean_anomaly": 221.6205,
        "meta_ephemeris_type": 0,
        "meta_classification_type": "U",
        "meta_norad_cat_id": 66564,
        "meta_element_set_no": 999,
        "meta_rev_at_epoch": 357,
        "meta_bstar": -0.024105959,
        "meta_mean_motion_dot": -0.0201919,
        "meta_mean_motion_ddot": 0,
        "tle_line1": "1 66564U 25268H   25340.25002315 -.02019190  00000+0 -24106-1 0  9999",
        "tle_line2": "2 66564  42.9994 159.2862 0001514 271.7011 221.6205 15.63561071  3577"
      },
      "geometry": {
        "type": "Point",
        "coordinates": [
          59.26266769350278,
          -42.77476850609537
        ]
      }
    },
    {
      "type": "Feature",
      "properties": {
        "norad_id": 66565,
        "name": "STARLINK-35893",
        "group": "last-30-days",
        "lat": -42.90087924557817,
        "lon": 61.86237905265524,
        "alt_km": 386.04651855354314,
        "timestamp": "2025-12-06T18:50:08.956017+00:00",
        "meta_object_name": "STARLINK-35893",
        "meta_object_id": "2025-268J",
        "meta_epoch": "2025-12-06T06:00:02.000160",
        "meta_mean_motion": 15.63559019,
        "meta_eccentricity": 0.00015818,
        "meta_inclination": 42.9996,
        "meta_ra_of_asc_node": 159.281,
        "meta_arg_of_pericenter": 271.0363,
        "meta_mean_anomaly": 224.2031,
        "meta_ephemeris_type": 0,
        "meta_classification_type": "U",
        "meta_norad_cat_id": 66565,
        "meta_element_set_no": 999,
        "meta_rev_at_epoch": 362,
        "meta_bstar": -0.02407953,
        "meta_mean_motion_dot": -0.02017159,
        "meta_mean_motion_ddot": 0,
        "tle_line1": "1 66565U 25268J   25340.25002315 -.02017159  00000+0 -24080-1 0  9994",
        "tle_line2": "2 66565  42.9996 159.2810 0001581 271.0363 224.2031 15.63559019  3621"
      },
      "geometry": {
        "type": "Point",
        "coordinates": [
          61.86237905265524,
          -42.90087924557817
        ]
      }
    },
    {
      "type": "Feature",
      "properties": {
        "norad_id": 66566,
        "name": "STARLINK-35871",
        "group": "last-30-days",
        "lat": -42.96734581868583,
        "lon": 64.47152691909591,
        "alt_km": 386.0477949690039,
        "timestamp": "2025-12-06T18:50:08.956029+00:00",
        "meta_object_name": "STARLINK-35871",
        "meta_object_id": "2025-268K",
        "meta_epoch": "2025-12-06T06:00:02.000160",
        "meta_mean_motion": 15.63558265,
        "meta_eccentricity": 0.00015794,
        "meta_inclination": 42.9994,
        "meta_ra_of_asc_node": 159.2761,
        "meta_arg_of_pericenter": 270.4635,
        "meta_mean_anomaly": 226.6941,
        "meta_ephemeris_type": 0,
        "meta_classification_type": "U",
        "meta_norad_cat_id": 66566,
        "meta_element_set_no": 999,
        "meta_rev_at_epoch": 362,
        "meta_bstar": -0.024078822,
        "meta_mean_motion_dot": -0.02017052,
        "meta_mean_motion_ddot": 0,
        "tle_line1": "1 66566U 25268K   25340.25002315 -.02017052  00000+0 -24079-1 0  9995",
        "tle_line2": "2 66566  42.9994 159.2761 0001579 270.4635 226.6941 15.63558265  3625"
      },
      "geometry": {
        "type": "Point",
        "coordinates": [
          64.47152691909591,
          -42.96734581868583
        ]
      }
    },
    {
      "type": "Feature",
      "properties": {
        "norad_id": 66567,
        "name": "STARLINK-35825",
        "group": "last-30-days",
        "lat": -42.9744438713673,
        "lon": 67.08396797033782,
        "alt_km": 386.0699374896358,
        "timestamp": "2025-12-06T18:50:08.956040+00:00",
        "meta_object_name": "STARLINK-35825",
        "meta_object_id": "2025-268L",
        "meta_epoch": "2025-12-06T06:00:02.000160",
        "meta_mean_motion": 15.63557592,
        "meta_eccentricity": 0.00015417,
        "meta_inclination": 42.9994,
        "meta_ra_of_asc_node": 159.2717,
        "meta_arg_of_pericenter": 272.3438,
        "meta_mean_anomaly": 226.7305,
        "meta_ephemeris_type": 0,
        "meta_classification_type": "U",
        "meta_norad_cat_id": 66567,
        "meta_element_set_no": 999,
        "meta_rev_at_epoch": 362,
        "meta_bstar": -0.024052944,
        "meta_mean_motion_dot": -0.02015076,
        "meta_mean_motion_ddot": 0,
        "tle_line1": "1 66567U 25268L   25340.25002315 -.02015076  00000+0 -24053-1 0  9992",
        "tle_line2": "2 66567  42.9994 159.2717 0001541 272.3438 226.7305 15.63557592  3625"
      },
      "geometry": {
        "type": "Point",
        "coordinates": [
          67.08396797033782,
          -42.9744438713673
        ]
      }
    },
    {
      "type": "Feature",
      "properties": {
        "norad_id": 66568,
        "name": "STARLINK-35803",
        "group": "last-30-days",
        "lat": -42.922066060067905,
        "lon": 69.6930140270715,
        "alt_km": 386.14640206577405,
        "timestamp": "2025-12-06T18:50:08.956051+00:00",
        "meta_object_name": "STARLINK-35803",
        "meta_object_id": "2025-268M",
        "meta_epoch": "2025-12-06T06:00:02.000160",
        "meta_mean_motion": 15.63566247,
        "meta_eccentricity": 0.00014372,
        "meta_inclination": 42.9995,
        "meta_ra_of_asc_node": 159.2661,
        "meta_arg_of_pericenter": 272.958,
        "meta_mean_anomaly": 228.028,
        "meta_ephemeris_type": 0,
        "meta_classification_type": "U",
        "meta_norad_cat_id": 66568,
        "meta_element_set_no": 999,
        "meta_rev_at_epoch": 362,
        "meta_bstar": -0.024169296,
        "meta_mean_motion_dot": -0.0202414,
        "meta_mean_motion_ddot": 0,
        "tle_line1": "1 66568U 25268M   25340.25002315 -.02024140  00000+0 -24169-1 0  9993",
        "tle_line2": "2 66568  42.9995 159.2661 0001437 272.9580 228.0280 15.63566247  3627"
      },
      "geometry": {
        "type": "Point",
        "coordinates": [
          69.6930140270715,
          -42.922066060067905
        ]
      }
    },
    {
      "type": "Feature",
      "properties": {
        "norad_id": 66569,
        "name": "STARLINK-35835",
        "group": "last-30-days",
        "lat": -42.81026276577262,
        "lon": 72.29729340488305,
        "alt_km": 386.1473011098951,
        "timestamp": "2025-12-06T18:50:08.956061+00:00",
        "meta_object_name": "STARLINK-35835",
        "meta_object_id": "2025-268N",
        "meta_epoch": "2025-12-06T06:00:02.000160",
        "meta_mean_motion": 15.63561444,
        "meta_eccentricity": 0.00014391,
        "meta_inclination": 42.9996,
        "meta_ra_of_asc_node": 159.2615,
        "meta_arg_of_pericenter": 271.2758,
        "meta_mean_anomaly": 231.6333,
        "meta_ephemeris_type": 0,
        "meta_classification_type": "U",
        "meta_norad_cat_id": 66569,
        "meta_element_set_no": 999,
        "meta_rev_at_epoch": 362,
        "meta_bstar": -0.024139571,
        "meta_mean_motion_dot": -0.02021622,
        "meta_mean_motion_ddot": 0,
        "tle_line1": "1 66569U 25268N   25340.25002315 -.02021622  00000+0 -24140-1 0  9995",
        "tle_line2": "2 66569  42.9996 159.2615 0001439 271.2758 231.6333 15.63561444  3622"
      },
      "geometry": {
        "type": "Point",
        "coordinates": [
          72.29729340488305,
          -42.81026276577262
        ]
      }
    },
    {
      "type": "Feature",
      "properties": {
        "norad_id": 66570,
        "name": "STARLINK-35834",
        "group": "last-30-days",
        "lat": -42.63943187285229,
        "lon": 74.88842475265359,
        "alt_km": 386.16862804216817,
        "timestamp": "2025-12-06T18:50:08.956070+00:00",
        "meta_object_name": "STARLINK-35834",
        "meta_object_id": "2025-268P",
        "meta_epoch": "2025-12-06T06:00:02.000160",
        "meta_mean_motion": 15.63560725,
        "meta_eccentricity": 0.00014208,
        "meta_inclination": 42.9996,
        "meta_ra_of_asc_node": 159.2562,
        "meta_arg_of_pericenter": 269.3898,
        "meta_mean_anomaly": 235.4386,
        "meta_ephemeris_type": 0,
        "meta_classification_type": "U",
        "meta_norad_cat_id": 66570,
        "meta_element_set_no": 999,
        "meta_rev_at_epoch": 362,
        "meta_bstar": -0.024156775,
        "meta_mean_motion_dot": -0.02022819,
        "meta_mean_motion_ddot": 0,
        "tle_line1": "1 66570U 25268P   25340.25002315 -.02022819  00000+0 -24157-1 0  9994",
        "tle_line2": "2 66570  42.9996 159.2562 0001420 269.3898 235.4386 15.63560725  3629"
      },
      "geometry": {
        "type": "Point",
        "coordinates": [
          74.88842475265359,
          -42.63943187285229
        ]
      }
    }
  ]
}